OBJECT_NAME,OBJECT_ID,EPOCH,MEAN_MOTION,ECCENTRICITY,INCLINATION,RA_OF_ASC_NODE,ARG_OF_PERICENTER,MEAN_ANOMALY,EPHEMERIS_TYPE,CLASSIFICATION_TYPE,NORAD_CAT_ID,ELEMENT_SET_NO,REV_AT_EPOCH,BSTAR,MEAN_MOTION_DOT,MEAN_MOTION_DDOT
STARLINK-3964,2022-051D,2026-07-17T22:00:01.999584,15.27555937,.00013904,53.1590,263.1795,70.5822,14.5803,0,U,52536,999,584,.97878215E-3,.26476E-3,0
STARLINK-3897,2022-051E,2026-07-17T22:00:01.999584,15.19133374,.00030141,53.1598,263.5561,97.2044,176.4604,0,U,52537,999,585,.10080772E-2,.21182E-3,0
STARLINK-3933,2022-051F,2026-07-17T11:20:46.142592,15.34390080,.0001204,53.1599,261.4540,80.1213,279.9926,0,U,52538,999,23110,.33901E-4,.769E-5,0
STARLINK-3757,2022-051G,2026-07-17T22:00:01.999584,15.26562030,.00009559,53.1593,263.2800,63.5378,10.1974,0,U,52539,999,579,.99383203E-3,.26081E-3,0
STARLINK-3940,2022-051H,2026-07-17T22:00:01.999584,15.19989028,.00020091,53.1603,263.6184,29.2600,310.3588,0,U,52540,999,585,.10242783E-2,.22076E-3,0
STARLINK-3845,2022-051J,2026-07-17T22:00:01.999584,15.22391702,.00013753,53.1595,267.8871,126.2151,44.7545,0,U,52541,999,584,.63558697E-3,.14567E-3,0
STARLINK-3937,2022-051K,2026-07-17T13:36:29.098944,15.35397851,.000106,53.1604,261.4906,69.8261,290.2856,0,U,52542,999,23111,.46802E-4,.1252E-4,0
STARLINK-3926,2022-051L,2026-07-17T22:00:01.999584,15.19851224,.00017694,53.1605,263.5692,15.2496,309.1892,0,U,52543,999,579,.97308041E-3,.20868E-3,0
STARLINK-3944,2022-051M,2026-07-17T05:03:33.303168,15.08838553,.00010024,53.1590,272.4124,83.0010,277.1095,0,U,52544,999,23092,.33472116E-4,.245E-5,0
STARLINK-3948,2022-051P,2026-07-17T22:00:01.999584,15.35383579,.00013791,53.1763,259.9502,79.2907,40.9776,0,U,52546,999,576,-.86961058E-4,-.3411E-4,0
STARLINK-3931,2022-051R,2026-07-17T22:00:01.999584,15.25359963,.00009031,53.1606,263.1003,30.2339,357.9971,0,U,52548,999,579,.8378213E-3,.2113E-3,0
STARLINK-3935,2022-051S,2026-07-17T22:00:01.999584,15.20669843,.00025558,53.1593,263.5506,70.7540,345.6070,0,U,52549,999,585,.1021229E-2,.22456E-3,0
STARLINK-3965,2022-051T,2026-07-17T22:00:01.999584,15.26681822,.00013799,53.1592,263.3055,91.0842,152.1967,0,U,52550,999,574,.77522575E-3,.20327E-3,0
STARLINK-3969,2022-051U,2026-07-17T22:00:01.999584,15.27743097,.00015782,53.1596,263.2747,95.7253,123.0929,0,U,52551,999,585,.80020343E-3,.21692E-3,0
STARLINK-3966,2022-051V,2026-07-17T22:00:01.999584,15.31701228,.0001032,53.1599,262.4614,74.4179,299.2410,0,U,52552,999,585,-.16770836E-3,-.5565E-4,0
STARLINK-3770,2022-051X,2026-07-17T11:19:47.998848,15.08840364,.000053,53.1592,271.2288,77.1225,282.9825,0,U,52554,999,23096,.85076E-4,.1067E-4,0
STARLINK-3943,2022-051AA,2026-07-17T22:00:01.999584,15.22905488,.00012512,53.1599,263.6540,63.6935,78.1531,0,U,52557,999,584,.97617164E-3,.22924E-3,0
STARLINK-3953,2022-051AC,2026-07-17T03:54:03.048192,15.08833101,.00009137,53.1585,257.7982,80.0271,280.0823,0,U,52559,999,23112,.62369037E-4,.705E-5,0
STARLINK-3956,2022-051AD,2026-07-17T03:32:49.653888,15.08818821,.00012042,53.1580,257.6834,85.8945,274.2184,0,U,52560,999,23112,.4527035E-4,.432E-5,0
STARLINK-3955,2022-051AE,2026-07-17T22:00:01.999584,15.31373625,.00011592,53.1590,267.6501,50.6285,0.3800,0,U,52561,999,579,.69748852E-3,.21121E-3,0
STARLINK-3957,2022-051AF,2026-07-17T10:41:22.655040,15.34391641,.0001169,53.1599,251.8657,61.9195,298.1926,0,U,52562,999,23123,.43695E-4,.11E-4,0
STARLINK-3942,2022-051AG,2026-07-17T22:00:01.999584,15.25047429,.00021735,53.1610,267.8767,84.9732,191.0127,0,U,52563,999,584,.60963338E-3,.15125E-3,0
STARLINK-3959,2022-051AH,2026-07-17T22:07:41.222496,15.08832918,.00009105,53.1584,269.2135,74.1262,285.9829,0,U,52564,999,23103,.52619359E-4,.55E-5,0
STARLINK-3911,2022-051AJ,2026-07-17T12:59:49.684128,15.08834771,.0001002,53.1595,255.9165,78.5125,281.5979,0,U,52565,999,23118,.16413E-4,-.27E-6,0
STARLINK-3938,2022-051AK,2026-07-17T22:00:01.999584,15.21663967,.00015094,53.1598,268.1461,13.1111,284.9493,0,U,52566,999,585,.66677791E-3,.1497E-3,0
STARLINK-3929,2022-051AL,2026-07-17T15:43:34.200480,15.35414338,.00010881,53.1579,251.0832,63.8296,296.2819,0,U,52567,999,23126,.48266508E-3,.165E-3,0
STARLINK-3930,2022-051AM,2026-07-17T10:38:24.227808,15.34367498,.0001116,53.1596,252.0094,81.6503,278.4626,0,U,52568,999,23123,-.60675E-4,-.2423E-4,0
STARLINK-3927,2022-051AN,2026-07-17T13:22:16.171104,15.31700218,.0001565,53.1601,252.6316,85.1374,274.9806,0,U,52569,999,23123,.31816E-4,.622E-5,0
STARLINK-3901,2022-051AQ,2026-07-17T04:14:07.408896,15.35418565,.00009733,53.1598,253.1501,66.8328,293.2778,0,U,52574,999,23119,.54234106E-4,.1513E-4,0
STARLINK-3932,2022-051AS,2026-07-17T04:16:35.161536,15.08840476,.00009118,53.1586,257.5467,78.2119,281.8975,0,U,52576,999,23113,.49111231E-4,.494E-5,0
STARLINK-3836,2022-051AT,2026-07-17T21:57:43.882272,15.34385476,.00013479,53.1597,265.2840,71.3034,288.8115,0,U,52577,999,23109,.5176252E-5,-.201E-5,0
STARLINK-3833,2022-051AU,2026-07-17T22:12:06.642432,15.35399560,.00011853,53.1606,266.0092,81.3348,278.7789,0,U,52578,999,23108,.47340415E-4,.1271E-4,0
STARLINK-3893,2022-051AV,2026-07-17T22:00:01.999584,15.61794659,.00009697,53.2168,257.8643,73.1322,290.9881,0,U,52579,999,568,.68051415E-2,.650505E-2,0
STARLINK-3919,2022-051AW,2026-07-17T05:26:08.168352,15.08832539,.000121,53.1597,272.3428,93.1748,266.9382,0,U,52580,999,23093,.44927E-6,-.281E-5,0
STARLINK-3915,2022-051AX,2026-07-17T10:31:26.796576,15.08835009,.0000979,53.1580,256.3760,75.4351,284.6749,0,U,52581,999,23117,.42376E-4,.387E-5,0
STARLINK-3895,2022-051AZ,2026-07-17T13:36:55.171008,15.08835300,.0000811,53.1588,255.7990,79.4131,280.6952,0,U,52583,999,23119,.25828E-4,.123E-5,0
STARLINK-3922,2022-051BA,2026-07-17T04:15:12.170016,15.08834080,.00010651,53.1587,257.5508,74.2293,285.8816,0,U,52584,999,23113,-.2438608E-5,-.327E-5,0
STARLINK-3906,2022-051BB,2026-07-17T13:21:01.334016,15.08832655,.000112,53.1579,255.8086,77.9126,282.1990,0,U,52585,999,23119,.34543E-4,.262E-5,0
STARLINK-3910,2022-051BC,2026-07-17T21:28:32.989728,15.08834293,.0000861,53.1589,254.3277,81.8513,278.2576,0,U,52586,999,23124,.24582893E-4,.103E-5,0
STARLINK-3867,2022-051BD,2026-07-17T09:54:07.998048,15.31698912,.000113,53.1591,252.8806,74.0971,286.0155,0,U,52587,999,23122,.10579E-4,-.37E-6,0
STARLINK-3917,2022-051BE,2026-07-17T10:04:57.256896,15.08833615,.0001189,53.1582,256.4594,90.1298,269.9829,0,U,52588,999,23117,.20924E-4,.45E-6,0
STARLINK-4019,2022-052A,2026-07-17T22:00:01.999584,15.22926971,.00007407,53.1597,58.0101,108.3579,134.7439,0,U,52598,999,579,.15880308E-2,.37601E-3,0
STARLINK-4024,2022-052B,2026-07-17T21:34:22.291968,15.31696356,.00011408,53.1608,50.1054,90.8320,269.2812,0,U,52599,999,23137,.8209492E-5,-.11E-5,0
STARLINK-4026,2022-052C,2026-07-17T21:53:51.938880,15.29357159,.0000998,53.1615,52.4167,83.4245,276.6869,0,U,52600,999,23134,-.3096818E-5,-.445E-5,0
STARLINK-4027,2022-052D,2026-07-17T21:28:33.184992,15.08831682,.00013608,53.1605,54.3290,93.3111,266.8036,0,U,52601,999,23131,-.41268856E-4,-.945E-5,0
STARLINK-4012,2022-052E,2026-07-17T19:47:51.967392,15.08832808,.00014332,53.1612,54.6435,91.8955,268.2201,0,U,52602,999,23130,-.16208501E-4,-.546E-5,0
STARLINK-4016,2022-052F,2026-07-17T23:01:59.242944,15.31694031,.00011049,53.1611,49.3143,89.6855,270.4273,0,U,52603,999,23139,-.40169996E-4,-.1611E-4,0
STARLINK-4013,2022-052G,2026-07-17T21:12:39.204576,15.08834653,.00015402,53.1601,54.3759,90.9022,269.2146,0,U,52604,999,23051,-.6925543E-5,-.398E-5,0
STARLINK-4000,2022-052H,2026-07-17T22:00:01.999584,15.32889501,.00019718,53.1607,57.4294,89.7910,111.1696,0,U,52605,999,585,.24928216E-2,.80797E-3,0
STARLINK-3928,2022-052J,2026-07-17T21:07:07.438944,15.09007664,.00030892,53.1599,54.3916,145.1537,214.9657,0,U,52606,999,23051,.13355799E-2,.21131E-3,0
STARLINK-3947,2022-052K,2026-07-17T22:00:01.999584,15.29169610,.00009441,53.1606,58.3608,104.0120,16.1553,0,U,52607,999,585,.12196497E-2,.34801E-3,0
STARLINK-3979,2022-052L,2026-07-17T19:21:22.511520,15.08831020,.00013291,53.1603,54.7248,86.2585,273.8559,0,U,52608,999,23050,.54932852E-4,.586E-5,0
STARLINK-3997,2022-052M,2026-07-17T20:40:51.074400,15.08836103,.00015773,53.1597,54.4252,83.3303,276.7868,0,U,52609,999,23051,.65715896E-4,.758E-5,0
STARLINK-3998,2022-052N,2026-07-17T22:00:01.999584,15.23026978,.00010891,53.1594,58.0856,82.6435,161.7742,0,U,52610,999,575,.16275975E-2,.38667E-3,0
STARLINK-3980,2022-052P,2026-07-17T22:00:01.999584,15.21131976,.00010916,53.1592,58.0357,16.5264,293.7413,0,U,52611,999,560,.13630098E-2,.30526E-3,0
STARLINK-4002,2022-052Q,2026-07-17T20:51:27.288576,15.08835825,.00014968,53.1605,54.4426,88.9530,271.1633,0,U,52612,999,23051,.4944976E-4,.499E-5,0
STARLINK-3982,2022-052S,2026-07-17T17:57:55.580544,15.55641653,.00024274,53.2089,326.4583,19.9970,340.1138,0,U,52614,999,23174,.60695073E-3,.42153E-3,0
STARLINK-4011,2022-052T,2026-07-17T22:00:01.999584,15.23487718,.00013453,53.1585,57.9322,82.8166,300.2117,0,U,52615,999,585,.11622298E-2,.27856E-3,0
STARLINK-3996,2022-052V,2026-07-17T20:10:22.899648,15.08840493,.00013469,53.1611,44.5725,94.0152,266.0993,0,U,52617,999,23063,.1170047E-3,.1575E-4,0
STARLINK-3983,2022-052W,2026-07-17T22:00:01.999584,15.18155787,.00011568,53.1609,43.7307,21.3345,272.6254,0,U,52618,999,585,.22860853E-2,.47254E-3,0
STARLINK-3741,2022-052X,2026-07-17T22:00:01.999584,15.34997411,.00019411,53.1607,41.9586,82.8153,77.9247,0,U,52619,999,585,.28770868E-2,.100023E-2,0
STARLINK-3975,2022-052Y,2026-07-17T22:00:01.999584,15.32533467,.00016682,53.1610,57.6122,102.7445,104.8398,0,U,52620,999,585,.24387739E-2,.78127E-3,0
STARLINK-3984,2022-052Z,2026-07-17T22:00:01.999584,15.19430472,.0002471,53.1596,43.5202,106.9448,15.2270,0,U,52621,999,585,.21491963E-2,.46074E-3,0
STARLINK-4008,2022-052AA,2026-07-17T22:00:01.999584,15.22033089,.00018648,53.1608,58.0286,84.1201,110.1115,0,U,52622,999,579,.16009605E-2,.36914E-3,0
STARLINK-3986,2022-052AB,2026-07-17T22:00:01.999584,15.20511867,.00006535,53.1599,43.6072,29.0718,68.3534,0,U,52623,999,585,.20289829E-2,.44866E-3,0
